{"type":"FeatureCollection","metadata":{"generated":1791125822000,"url":"https://earthquake.usgs.gov/earthquakes/feed/v1.0/summary/all_hour.geojson","title":"USGS All Earthquakes, Past Hour","status":200,"api":"2.7.0","count":5},"features":[{"type":"Feature","properties":{"mag":1.56,"place":"37 km N of Sutcliffe, Nevada","time":1791125291592,"updated":1791125438073,"tz":null,"url":"https://earthquake.usgs.gov/earthquakes/eventpage/nn00925263","detail":"https://earthquake.usgs.gov/earthquakes/feed/v1.0/detail/nn00925263.geojson","felt":null,"cdi":null,"mmi":null,"alert":null,"status":"automatic","tsunami":0,"sig":37,"net":"nn","code":"00925263","ids":",nn00925263,","sources":",nn,","types":",origin,phase-data,","nst":10,"dmin":0.156,"rms":0.2519,"gap":273,"magType":"ml","type":"earthquake","title":"M 1.6 - 37 km N of Sutcliffe, Nevada"},"geometry":{"type":"Point","coordinates":[-119.5922,40.2841,6.389]},"id":"nn00925263"},
{"type":"Feature","properties":{"mag":1.68,"place":"85 km NE of Tonopah, Nevada","time":1791123812580,"updated":1791124068286,"tz":null,"url":"https://earthquake.usgs.gov/earthquakes/eventpage/nn00925260","detail":"https://earthquake.usgs.gov/earthquakes/feed/v1.0/detail/nn00925260.geojson","felt":null,"cdi":null,"mmi":null,"alert":null,"status":"automatic","tsunami":0,"sig":43,"net":"nn","code":"00925260","ids":",nn00925260,","sources":",nn,","types":",origin,phase-data,","nst":12,"dmin":1.066,"rms":0.2355,"gap":203,"magType":"ml","type":"earthquake","title":"M 1.7 - 85 km NE of Tonopah, Nevada"},"geometry":{"type":"Point","coordinates":[-116.4503,38.5285,0.0198]},"id":"nn00925260"},
{"type":"Feature","properties":{"mag":2,"place":"3 km ENE of Pāpa‘ikou, Hawaii","time":1791123053770,"updated":1791123261120,"tz":null,"url":"https://earthquake.usgs.gov/earthquakes/eventpage/hv75049677","detail":"https://earthquake.usgs.gov/earthquakes/feed/v1.0/detail/hv75049677.geojson","felt":null,"cdi":null,"mmi":null,"alert":null,"status":"automatic","tsunami":0,"sig":62,"net":"hv","code":"75049677","ids":",hv75049677,","sources":",hv,","types":",origin,phase-data,","nst":25,"dmin":0.1066,"rms":0.189999998,"gap":201,"magType":"md","type":"earthquake","title":"M 2.0 - 3 km ENE of Pāpa‘ikou, Hawaii"},"geometry":{"type":"Point","coordinates":[-155.063171386719,19.7993335723877,43.9099998474121]},"id":"hv75049677"},
{"type":"Feature","properties":{"mag":5,"place":"295 km S of Burica, Panama","time":1791122770385,"updated":1791124122040,"tz":null,"url":"https://earthquake.usgs.gov/earthquakes/eventpage/us6000tzj8","detail":"https://earthquake.usgs.gov/earthquakes/feed/v1.0/detail/us6000tzj8.geojson","felt":null,"cdi":null,"mmi":null,"alert":null,"status":"reviewed","tsunami":0,"sig":385,"net":"us","code":"6000tzj8","ids":",us6000tzj8,","sources":",us,","types":",origin,phase-data,","nst":61,"dmin":3.903,"rms":1.44,"gap":64,"magType":"mww","type":"earthquake","title":"M 5.0 - 295 km S of Burica, Panama"},"geometry":{"type":"Point","coordinates":[-82.7171,5.3695,10]},"id":"us6000tzj8"},
{"type":"Feature","properties":{"mag":1.76,"place":"6 km SSE of Pāhala, Hawaii","time":1791122445450,"updated":1791122660130,"tz":null,"url":"https://earthquake.usgs.gov/earthquakes/eventpage/hv75049672","detail":"https://earthquake.usgs.gov/earthquakes/feed/v1.0/detail/hv75049672.geojson","felt":null,"cdi":null,"mmi":null,"alert":null,"status":"automatic","tsunami":0,"sig":48,"net":"hv","code":"75049672","ids":",hv75049672,","sources":",hv,","types":",origin,phase-data,","nst":26,"dmin":0.09834,"rms":0.109999999,"gap":175,"magType":"md","type":"earthquake","title":"M 1.8 - 6 km SSE of Pāhala, Hawaii"},"geometry":{"type":"Point","coordinates":[-155.448501586914,19.1513328552246,29.25]},"id":"hv75049672"}],"bbox":[-155.44850158691,5.3695,0.0198,-82.7171,40.2841,43.909999847412]}